[{"OBJECT_NAME":"STARLINK-35115","OBJECT_ID":"2025-211P","EPOCH":"2026-03-09T16:32:13.175232","MEAN_MOTION":15.05661545,"ECCENTRICITY":0.00011083,"INCLINATION":97.6026,"RA_OF_ASC_NODE":114.0949,"ARG_OF_PERICENTER":127.5347,"MEAN_ANOMALY":232.5981,"EPHEMERIS_TYPE":0,"CLASSIFICATION_TYPE":"U","NORAD_CAT_ID":65665,"ELEMENT_SET_NO":999,"REV_AT_EPOCH":2704,"BSTAR":0.00031925082,"MEAN_MOTION_DOT":4.55e-5,"MEAN_MOTION_DDOT":0},{"OBJECT_NAME":"CZ-6A DEB","OBJECT_ID":"2022-151DD","EPOCH":"2026-03-09T17:22:01.111008","MEAN_MOTION":14.86690016,"ECCENTRICITY":0.00876761,"INCLINATION":98.4579,"RA_OF_ASC_NODE":137.3593,"ARG_OF_PERICENTER":94.708,"MEAN_ANOMALY":266.4154,"EPHEMERIS_TYPE":0,"CLASSIFICATION_TYPE":"U","NORAD_CAT_ID":54358,"ELEMENT_SET_NO":999,"REV_AT_EPOCH":17717,"BSTAR":0.0022043381,"MEAN_MOTION_DOT":0.00021004,"MEAN_MOTION_DDOT":0}]
